0 FENGYUN 1C DEB
1 32152U 99025CSW 13280.37068330  .00001871  00000-0  72347-3 0  2336
2 32152 098.7788 333.9093 0084210 070.8899 290.1633 14.29374458334919
0 FENGYUN 1C DEB
1 32152U 99025CSW 13282.96067393  .00001582  00000-0  61493-3 0  2341
2 32152 098.7729 336.5079 0083101 062.4167 298.5124 14.29380681335283
0 FENGYUN 1C DEB
1 32152U 99025CSW 13287.37063793  .00001597  00000-0  62047-3 0  2365
2 32152 098.7785 340.9581 0082911 050.2158 310.6308 14.29395259335912
0 FENGYUN 1C DEB
1 32152U 99025CSW 13289.96058848  .00001615  00000-0  62726-3 0  2373
2 32152 098.7793 343.5674 0082542 042.9675 317.7952 14.29404080336282
0 FENGYUN 1C DEB
1 32152U 99025CSW 13293.39049515  .00001634  00000-0  63471-3 0  2386
2 32152 098.7809 347.0282 0082262 033.1696 327.4645 14.29415895336775
